0 ARIANE 5 R/B
1 25990U 99066B   13283.52219535  .00000000  00000-0  10000-3 0  5758
2 25990 063.5139 101.8504 4732573 085.4074 325.3789 00.55310931 15732
0 ARIANE 5 R/B
1 25990U 99066B   13283.69801287  .00000293  00000-0  00000+0 0  5745
2 25990 063.5172 101.8414 4730080 085.4255 000.3609 00.55309885 15738
0 ARIANE 5 R/B
1 25990U 99066B   13285.50575203  .00000297  00000-0  00000+0 0  5758
2 25990 063.5195 101.8260 4733318 085.3846 000.3283 00.55308304 15748
0 ARIANE 5 R/B
1 25990U 99066B   13287.31377072  .00000304  00000-0  00000+0 0  5763
2 25990 063.5188 101.8080 4736930 085.3504 000.3416 00.55309062 15755
0 ARIANE 5 R/B
1 25990U 99066B   13289.12170174  .00000292  00000-0  00000+0 0  5775
2 25990 063.5169 101.7879 4739809 085.3211 000.3407 00.55310338 15761
0 ARIANE 5 R/B
1 25990U 99066B   13290.92968048  .00000262  00000-0  00000+0 0  5788
2 25990 063.5174 101.7705 4742163 085.2905 000.3572 00.55311574 15778
0 ARIANE 5 R/B
1 25990U 99066B   13292.73744871  .00000234  00000-0  00000+0 0  5795
2 25990 063.5202 101.7563 4744777 085.2572 000.3337 00.55312344 15781
0 ARIANE 5 R/B
1 25990U 99066B   13294.54525946  .00000229  00000-0  00000+0 0  5802
2 25990 063.5229 101.7429 4747782 085.2249 000.3141 00.55311819 15791
0 ARIANE 5 R/B
1 25990U 99066B   13296.35290135  .00000250  00000-0  00000+0 0  5817
2 25990 063.5243 101.7282 4750799 085.1955 000.2561 00.55310053 15805
